STARLINK-3154
1 19417C 21104K   21326.14812248 -.00825865  00000-0 -30982-2 0  3261
2 19417  53.2176  90.8309 0024624  65.1478 234.7236 15.87438231    19
